NORAD_CAT_ID,OBJECT_NAME,OBJECT_TYPE,EPOCH,MEAN_MOTION,ECCENTRICITY,INCLINATION,RA_OF_ASC_NODE,ARG_OF_PERICENTER,MEAN_ANOMALY,BSTAR,MEAN_MOTION_DOT,MEAN_MOTION_DDOT,TLE_LINE0,TLE_LINE1,TLE_LINE2,SEMIMAJOR_AXIS,PERIOD,APOGEE,PERIGEE,DECAYED
52471.0,STARLINK-3862,PAYLOAD,2022-12-10 10:05:18,15.08830042,0.0002503,53.2176,339.9992,31.0048,329.1092,-0.00011983,-2.195e-05,0.0,0 STARLINK-3862,1 52471U 22049W   22344.42035114 -.00002195  00000-0 -11983-3 0  9995,2 52471  53.2176 339.9992 0002503  31.0048 329.1092 15.08830042 33479,6917.911,95.438,541.507,538.044,0.0
52471.0,STARLINK-3862,PAYLOAD,2022-12-11 09:56:05,15.088381900000002,0.0002426,53.218,335.5387,29.2934,330.8194,0.00038577,5.856e-05,0.0,0 STARLINK-3862,1 52471U 22049W   22345.41395578  .00005856  00000-0  38577-3 0  9991,2 52471  53.2180 335.5387 0002426  29.2934 330.8194 15.08838190 33464,6917.886,95.438,541.429,538.073,0.0
52471.0,STARLINK-3862,PAYLOAD,2022-12-12 11:22:15,15.08837332,0.0002502,53.2175,330.7814,30.8581,329.2557,7.187199999999999e-05,8.56e-06,0.0,0 STARLINK-3862,1 52471U 22049W   22346.47379618  .00000856  00000-0  71872-4 0  9996,2 52471  53.2175 330.7814 0002502  30.8581 329.2557 15.08837332 33788,6917.889,95.438,541.484,538.023,0.0
52471.0,STARLINK-3862,PAYLOAD,2022-12-13 08:02:16,15.08839346,0.0002711,53.2182,326.9167,30.127,329.9878,6.2969e-05,7.14e-06,0.0,0 STARLINK-3862,1 52471U 22049W   22347.33491701  .00000714  00000-0  62969-4 0  9990,2 52471  53.2182 326.9167 0002711  30.1270 329.9878 15.08839346 33751,6917.882,95.438,541.623,537.872,0.0
52471.0,STARLINK-3862,PAYLOAD,2022-12-13 15:59:12,15.08846334,0.0002381,53.2175,325.4297,27.8545,332.2575,0.00016435,2.329e-05,0.0,0 STARLINK-3862,1 52471U 22049W   22347.66611228  .00002329  00000-0  16435-3 0  9994,2 52471  53.2175 325.4297 0002381  27.8545 332.2575 15.08846334 33961,6917.861,95.437,541.373,538.0790000000002,0.0
52471.0,STARLINK-3862,PAYLOAD,2022-12-14 07:53:03,15.08845771,0.0002405,53.2175,322.4554,30.6219,329.4913,0.0001426999999999,1.984e-05,0.0,0 STARLINK-3862,1 52471U 22049W   22348.32851240  .00001984  00000-0  14270-3 0  9999,2 52471  53.2175 322.4554 0002405  30.6219 329.4913 15.08845771 33903,6917.863,95.437,541.391,538.064,0.0
52471.0,STARLINK-3862,PAYLOAD,2022-12-14 15:49:59,15.08838545,0.0002527,53.2177,320.9686,30.3272,329.7866,4.806e-05,4.77e-06,0.0,0 STARLINK-3862,1 52471U 22049W   22348.65971673  .00000477  00000-0  48060-4 0  9999,2 52471  53.2177 320.9686 0002527  30.3272 329.7866 15.08838545 33951,6917.885,95.438,541.498,538.002,0.0
52471.0,STARLINK-3862,PAYLOAD,2022-12-15 09:19:13,15.08843915,0.000244,53.2177,317.698,27.1887,332.9232,0.00014006,1.942e-05,0.0,0 STARLINK-3862,1 52471U 22049W   22349.38835391  .00001942  00000-0  14006-3 0  9996,2 52471  53.2177 317.6980 0002440  27.1887 332.9232 15.08843915 34064,6917.868,95.437,541.4209999999998,538.045,0.0
52471.0,STARLINK-3862,PAYLOAD,2022-12-15 15:40:46,15.08842539,0.0002421,53.2176,316.5082,27.1615,332.9504,0.00011123,1.482e-05,0.0,0 STARLINK-3862,1 52471U 22049W   22349.65331434  .00001482  00000-0  11123-3 0  9991,2 52471  53.2176 316.5082 0002421  27.1615 332.9504 15.08842539 34100,6917.873000000001,95.437,541.4119999999998,538.063,0.0
52471.0,STARLINK-3862,PAYLOAD,2022-12-16 01:13:04,15.08848718,0.0002347,53.2172,314.7237,27.9939,332.1179,0.00018909,2.723e-05,0.0,0 STARLINK-3862,1 52471U 22049W   22350.05074992  .00002723  00000-0  18909-3 0  9998,2 52471  53.2172 314.7237 0002347  27.9939 332.1179 15.08848718 34321,6917.854,95.437,541.342,538.095,0.0
52471.0,STARLINK-3862,PAYLOAD,2022-12-16 07:34:37,15.08849759,0.0002623,53.2178,313.5366,24.0007,336.1107,0.00023762,3.496e-05,0.0,0 STARLINK-3862,1 52471U 22049W   22350.31571062  .00003496  00000-0  23762-3 0  9998,2 52471  53.2178 313.5366 0002623  24.0007 336.1107 15.08849759 34206,6917.851,95.437,541.53,537.901,0.0
52471.0,STARLINK-3862,PAYLOAD,2022-12-17 04:14:38,15.08831859,0.0002411,53.2176,309.6693,24.3824,335.7281,-0.00010512,-1.961e-05,0.0,0 STARLINK-3862,1 52471U 22049W   22351.17683702 -.00001961  00000-0 -10512-3 0  9994,2 52471  53.2176 309.6693 0002411  24.3824 335.7281 15.08831859 34499,6917.905,95.438,541.438,538.102,0.0
52471.0,STARLINK-3862,PAYLOAD,2022-12-17 07:25:24,15.08834175,0.0002421,53.217,309.0742,25.6043,334.5069,-5.7136e-06,-3.79e-06,0.0,0 STARLINK-3862,1 52471U 22049W   22351.30931704 -.00000379  00000-0 -57136-5 0  9994,2 52471  53.2170 309.0742 0002421  25.6043 334.5069 15.08834175 34350,6917.898,95.438,541.438,538.0880000000002,0.0
52471.0,STARLINK-3862,PAYLOAD,2022-12-17 16:57:43,15.08835392,0.0002522,53.2172,307.2912,28.2348,331.8780000000001,-1.5231e-05,-5.31e-06,0.0,0 STARLINK-3862,1 52471U 22049W   22351.70675801 -.00000531  00000-0 -15231-4 0  9990,2 52471  53.2172 307.2912 0002522  28.2348 331.8780 15.08835392 34419,6917.894,95.438,541.504,538.015,0.0
52471.0,STARLINK-3862,PAYLOAD,2022-12-18 04:05:26,15.08827126,0.0002377,53.2174,305.2093,28.4647,331.6475,-0.00011197,-2.069e-05,0.0,0 STARLINK-3862,1 52471U 22049W   22352.17044382 -.00002069  00000-0 -11197-3 0  9990,2 52471  53.2174 305.2093 0002377  28.4647 331.6475 15.08827126 34483,6917.92,95.438,541.429,538.14,0.0
52471.0,STARLINK-3862,PAYLOAD,2022-12-18 21:34:41,15.08831268,0.0002386,53.2173,301.9374,27.0361,333.0755,0.00021189,3.085e-05,0.0,0 STARLINK-3862,1 52471U 22049W   22352.89908843  .00003085  00000-0  21189-3 0  9999,2 52471  53.2173 301.9374 0002386  27.0361 333.0755 15.08831268 34596,6917.906999999997,95.438,541.423,538.121,0.0
52471.0,STARLINK-3862,PAYLOAD,2022-12-19 00:45:27,15.08836407,0.0002372,53.2174,301.343,27.7977,332.3142,0.0002736,4.068e-05,0.0,0 STARLINK-3862,1 52471U 22049W   22353.03156674  .00004068  00000-0  27360-3 0  9992,2 52471  53.2174 301.3430 0002372  27.7977 332.3142 15.08836407 34771,6917.891,95.438,541.3969999999998,538.115,0.0
52471.0,STARLINK-3862,PAYLOAD,2022-12-19 19:50:04,15.08856571,0.0002409,53.2175,297.7757,31.5307,328.5829,0.00054423,8.388e-05,0.0,0 STARLINK-3862,1 52471U 22049W   22353.82644145  .00008388  00000-0  54423-3 0  9993,2 52471  53.2175 297.7757 0002409  31.5307 328.5829 15.08856571 34732,6917.83,95.437,541.361,538.028,0.0
52471.0,STARLINK-3862,PAYLOAD,2022-12-19 23:00:50,15.08868131,0.0002331,53.2169,297.1805,34.2447,325.8696,0.00089037,0.00013922,0.0,0 STARLINK-3862,1 52471U 22049W   22353.95891946  .00013922  00000-0  89037-3 0  9999,2 52471  53.2169 297.1805 0002331  34.2447 325.8696 15.08868131 34919,6917.794,95.436,541.2719999999998,538.047,0.0
52471.0,STARLINK-3862,PAYLOAD,2022-12-20 13:19:18,15.0886459,0.0002569,53.2169,294.5042,33.0654,327.0499,0.00039955,6.081e-05,0.0,0 STARLINK-3862,1 52471U 22049W   22354.55507250  .00006081  00000-0  39955-3 0  9990,2 52471  53.2169 294.5042 0002569  33.0654 327.0499 15.08864590 35004,6917.805,95.436,541.447,537.893,0.0
52471.0,STARLINK-3862,PAYLOAD,2022-12-20 21:16:14,15.08844511,0.0002294,53.2168,293.0172,29.9788,330.1335,-0.00021495,-3.708e-05,0.0,0 STARLINK-3862,1 52471U 22049W   22354.88627336 -.00003708  00000-0 -21495-3 0  9999,2 52471  53.2168 293.0172 0002294  29.9788 330.1335 15.08844511 35058,6917.8669999999975,95.437,541.319,538.145,0.0
52471.0,STARLINK-3862,PAYLOAD,2022-12-21 05:13:10,15.08832799,0.0002448,53.2169,291.5302,31.5328,328.5811,-0.00036335,-6.066e-05,0.0,0 STARLINK-3862,1 52471U 22049W   22355.21747805 -.00006066  00000-0 -36335-3 0  9990,2 52471  53.2169 291.5302 0002448  31.5328 328.5811 15.08832799 35108,6917.901999999999,95.438,541.461,538.0740000000002,0.0
52471.0,STARLINK-3862,PAYLOAD,2022-12-21 13:10:06,15.08822904,0.0002443,53.2172,290.0432,31.6757,328.4382,-0.0004069,-6.756e-05,0.0,0 STARLINK-3862,1 52471U 22049W   22355.54868512 -.00006756  00000-0 -40690-3 0  9990,2 52471  53.2172 290.0432 0002443  31.6757 328.4382 15.08822904 34997,6917.933000000001,95.439,541.488,538.1080000000002,0.0
52471.0,STARLINK-3862,PAYLOAD,2022-12-21 16:20:53,15.08823734,0.0002474,53.2174,289.4487,34.1006,326.0144,-0.00030269,-5.101e-05,0.0,0 STARLINK-3862,1 52471U 22049W   22355.68117190 -.00005101  00000-0 -30269-3 0  9998,2 52471  53.2174 289.4487 0002474  34.1006 326.0144 15.08823734 35173,6917.93,95.439,541.507,538.0840000000002,0.0
52471.0,STARLINK-3862,PAYLOAD,2022-12-22 01:53:12,15.08827005,0.0002462,53.2172,287.6642,35.3112,324.8042,-0.00015678,-2.782e-05,0.0,0 STARLINK-3862,1 52471U 22049W   22356.07861369 -.00002782  00000-0 -15678-3 0  9995,2 52471  53.2172 287.6642 0002462  35.3112 324.8042 15.08827005 35079,6917.92,95.438,541.488,538.082,0.0
52471.0,STARLINK-3862,PAYLOAD,2022-12-22 13:00:54,15.08836907,0.0002492,53.2178,285.5832,36.3507,323.7654,-3.3278e-05,-8.18e-06,0.0,0 STARLINK-3862,1 52471U 22049W   22356.54229408 -.00000818  00000-0 -33278-4 0  9994,2 52471  53.2178 285.5832 0002492  36.3507 323.7654 15.08836907 35309,6917.89,95.438,541.479,538.031,0.0
52471.0,STARLINK-3862,PAYLOAD,2022-12-23 12:51:41,15.08847281,0.0002518,53.2171,281.1229,38.7282,321.3891,0.00046452,7.114e-05,0.0,0 STARLINK-3862,1 52471U 22049W   22357.53589369  .00007114  00000-0  46452-3 0  9990,2 52471  53.2171 281.1229 0002518  38.7282 321.3891 15.08847281 35291,6917.858,95.437,541.465,537.981,0.0
52471.0,STARLINK-3862,PAYLOAD,2022-12-23 19:13:14,15.08848724,0.0002529,53.2168,279.9336,39.7732,320.3445,0.00050138,7.702e-05,0.0,0 STARLINK-3862,1 52471U 22049W   22357.80085770  .00007702  00000-0  50138-3 0  9996,2 52471  53.2168 279.9336 0002529  39.7732 320.3445 15.08848724 35336,6917.854,95.437,541.4680000000002,537.969,0.0
52471.0,STARLINK-3862,PAYLOAD,2022-12-24 01:34:46,15.08863092,0.0002533,53.2168,278.744,40.5139,319.6042,0.00065607,0.00010175,0.0,0 STARLINK-3862,1 52471U 22049W   22358.06581211  .00010175  00000-0  65607-3 0  9991,2 52471  53.2168 278.7440 0002533  40.5139 319.6042 15.08863092 35536,6917.81,95.436,541.427,537.923,0.0
